[{"OBJECT_NAME":"OOV-CUBE (TUBSAT-30)","OBJECT_ID":"2024-128F","EPOCH":"2026-03-06T20:00:50.211072","MEAN_MOTION":15.02225111,"ECCENTRICITY":0.005471,"INCLINATION":61.9944,"RA_OF_ASC_NODE":222.3349,"ARG_OF_PERICENTER":111.7529,"MEAN_ANOMALY":248.9397,"EPHEMERIS_TYPE":0,"CLASSIFICATION_TYPE":"U","NORAD_CAT_ID":60240,"ELEMENT_SET_NO":999,"REV_AT_EPOCH":9073,"BSTAR":0.00038847,"MEAN_MOTION_DOT":5.102e-5,"MEAN_MOTION_DDOT":0}]
